COSMOS 2576             
1 59773U 24092A   26068.82603826  .00015211  00000+0  56283-3 0  9991
2 59773  97.4253 186.0053 0005946 159.7731 200.3745 15.27760963101271
STARLINK-32893          
1 62897U 25024U   26068.12539589  .00041850  00000+0  15196-2 0  9990
2 62897  43.0000 328.2049 0003219 247.3227 112.7284 15.27622987 62182
